*******************************************************************************
 Revised: July 31, 2013             Moon / (Earth)                          301
 
 GEOPHYSICAL DATA (updated 2018-Aug-15):
  Vol. mean radius, km  = 1737.53+-0.03    Mass, x10^22 kg       =    7.349
  Radius (gravity), km  = 1738.0           Surface emissivity    =    0.92
  Radius (IAU), km      = 1737.4           GM, km^3/s^2          = 4902.800066
  Density, g/cm^3       =    3.3437        GM 1-sigma, km^3/s^2  =  +-0.0001  
  V(1,0)                =   +0.21          Surface accel., m/s^2 =    1.62
  Earth/Moon mass ratio = 81.3005690769    Farside crust. thick. = ~80 - 90 km
  Mean crustal density  = 2.97+-.07 g/cm^3 Nearside crust. thick.= 58+-8 km 
  Heat flow, Apollo 15  = 3.1+-.6 mW/m^2   Mean angular diameter = 31'05.2"
  Heat flow, Apollo 17  = 2.2+-.5 mW/m^2   Sid. rot. rate, rad/s = 0.0000026617
  Geometric Albedo      = 0.12             Mean solar day        = 29.5306 d
  Obliquity to orbit    = 6.67 deg         Orbit period          = 27.321582 d
  Semi-major axis, a    = 384400 km        Eccentricity          = 0.05490
  Mean motion, rad/s    = 2.6616995x10^-6  Inclination           = 5.145 deg
  Apsidal period        = 3231.50 d        Nodal period          = 6798.38 d
                                 Perihelion  Aphelion    Mean
  Solar Constant (W/m^2)         1414+-7     1323+-7     1368+-7
  Maximum Planetary IR (W/m^2)   1314        1226        1268
  Minimum Planetary IR (W/m^2)      5.2         5.2         5.2
********************************************************************************


*******************************************************************************
Ephemeris / WWW_USER Tue Apr 14 11:00:22 2026 Pasadena, USA      / Horizons    
*******************************************************************************
Target body name: Moon (301)                      {source: DE441}
Center body name: Earth (399)                     {source: DE441}
Center-site name: GEOCENTRIC
*******************************************************************************
Start time      : A.D. 2025-Jan-01 00:00:00.0000 UT      
Stop  time      : A.D. 2032-Jan-01 00:00:00.0000 UT      
Step-size       : 120 minutes
*******************************************************************************
Target pole/equ : MOON_ME                         {East-longitude positive}
Target radii    : 1737.4, 1737.4, 1737.4 km       {Equator_a, b, pole_c}       
Center geodetic : 0.0, 0.0, -6378.137             {E-lon(deg),Lat(deg),Alt(km)}
Center cylindric: 0.0, 0.0, 0.0                   {E-lon(deg),Dxy(km),Dz(km)}
Center pole/equ : ITRF93                          {East-longitude positive}
Center radii    : 6378.137, 6378.137, 6356.752 km {Equator_a, b, pole_c}       
Target primary  : Earth
Vis. interferer : MOON (R_eq= 1737.400) km        {source: DE441}
Rel. light bend : Sun                             {source: DE441}
Rel. lght bnd GM: 1.3271E+11 km^3/s^2                                          
Atmos refraction: NO (AIRLESS)
RA format       : DEG
Time format     : CAL 
Calendar mode   : Mixed Julian/Gregorian
EOP file        : eop.260413.p260710                                           
EOP coverage    : DATA-BASED 1962-JAN-20 TO 2026-APR-13. PREDICTS-> 2026-JUL-09
Units conversion: 1 au= 149597870.700 km, c= 299792.458 km/s, 1 day= 86400.0 s 
Table cut-offs 1: Elevation (-90.0deg=NO ),Airmass (>38.000=NO), Daylight (NO )
Table cut-offs 2: Solar elongation (  0.0,180.0=NO ),Local Hour Angle( 0.0=NO )
Table cut-offs 3: RA/DEC angular rate (     0.0=NO )                           
Table format    : Comma Separated Values (spreadsheet)
*******************************************************************************
 Date__(UT)__HR:MN, , ,    ObsEcLon,   ObsEcLat,
************************************************
$$SOE
 2031-Jul-14 10:00, , ,  55.4969558,  0.1182485,
 2031-Jul-14 12:00, , ,  56.5045165,  0.0279122,
 2031-Jul-14 14:00, , ,  57.5108217, -0.0623063,
 2031-Jul-14 16:00, , ,  58.5159126, -0.1523820,
 2031-Jul-14 18:00, , ,  59.5198300, -0.2422902,
 2031-Jul-14 20:00, , ,  60.5226140, -0.3320065,
 2031-Jul-14 22:00, , ,  61.5243047, -0.4215064,
 2031-Jul-15 00:00, , ,  62.5249414, -0.5107657,
 2031-Jul-15 02:00, , ,  63.5245631, -0.5997605,
 2031-Jul-15 04:00, , ,  64.5232085, -0.6884668,
 2031-Jul-15 06:00, , ,  65.5209155, -0.7768610,
 2031-Jul-15 08:00, , ,  66.5177218, -0.8649196,
 2031-Jul-15 10:00, , ,  67.5136645, -0.9526191,
 2031-Jul-15 12:00, , ,  68.5087802, -1.0399363,
 2031-Jul-15 14:00, , ,  69.5031050, -1.1268482,
 2031-Jul-15 16:00, , ,  70.4966746, -1.2133319,
 2031-Jul-15 18:00, , ,  71.4895241, -1.2993646,
 2031-Jul-15 20:00, , ,  72.4816880, -1.3849237,
 2031-Jul-15 22:00, , ,  73.4732005, -1.4699867,
 2031-Jul-16 00:00, , ,  74.4640951, -1.5545315,
 2031-Jul-16 02:00, , ,  75.4544048, -1.6385357,
 2031-Jul-16 04:00, , ,  76.4441622, -1.7219775,
 2031-Jul-16 06:00, , ,  77.4333992, -1.8048349,
 2031-Jul-16 08:00, , ,  78.4221473, -1.8870863,
 2031-Jul-16 10:00, , ,  79.4104373, -1.9687101,
 2031-Jul-16 12:00, , ,  80.3982997, -2.0496850,
 2031-Jul-16 14:00, , ,  81.3857644, -2.1299897,
 2031-Jul-16 16:00, , ,  82.3728605, -2.2096031,
 2031-Jul-16 18:00, , ,  83.3596171, -2.2885043,
 2031-Jul-16 20:00, , ,  84.3460622, -2.3666726,
 2031-Jul-16 22:00, , ,  85.3322237, -2.4440872,
 2031-Jul-17 00:00, , ,  86.3181287, -2.5207279,
 2031-Jul-17 02:00, , ,  87.3038041, -2.5965743,
 2031-Jul-17 04:00, , ,  88.2892760, -2.6716063,
 2031-Jul-17 06:00, , ,  89.2745701, -2.7458039,
 2031-Jul-17 08:00, , ,  90.2597115, -2.8191474,
 2031-Jul-17 10:00, , ,  91.2447251, -2.8916172,
 2031-Jul-17 12:00, , ,  92.2296350, -2.9631938,
 2031-Jul-17 14:00, , ,  93.2144649, -3.0338581,
 2031-Jul-17 16:00, , ,  94.1992381, -3.1035909,
 2031-Jul-17 18:00, , ,  95.1839774, -3.1723735,
 2031-Jul-17 20:00, , ,  96.1687050, -3.2401871,
 2031-Jul-17 22:00, , ,  97.1534429, -3.3070133,
 2031-Jul-18 00:00, , ,  98.1382125, -3.3728337,
 2031-Jul-18 02:00, , ,  99.1230348, -3.4376304,
 2031-Jul-18 04:00, , , 100.1079303, -3.5013854,
 2031-Jul-18 06:00, , , 101.0929192, -3.5640810,
 2031-Jul-18 08:00, , , 102.0780213, -3.6256999,
 2031-Jul-18 10:00, , , 103.0632559, -3.6862248,
 2031-Jul-18 12:00, , , 104.0486420, -3.7456387,
 2031-Jul-18 14:00, , , 105.0341982, -3.8039248,
 2031-Jul-18 16:00, , , 106.0199428, -3.8610666,
 2031-Jul-18 18:00, , , 107.0058937, -3.9170478,
 2031-Jul-18 20:00, , , 107.9920683, -3.9718523,
 2031-Jul-18 22:00, , , 108.9784841, -4.0254643,
 2031-Jul-19 00:00, , , 109.9651580, -4.0778683,
 2031-Jul-19 02:00, , , 110.9521065, -4.1290488,
 2031-Jul-19 04:00, , , 111.9393461, -4.1789909,
 2031-Jul-19 06:00, , , 112.9268929, -4.2276797,
 2031-Jul-19 08:00, , , 113.9147627, -4.2751008,
 2031-Jul-19 10:00, , , 114.9029712, -4.3212398,
 2031-Jul-19 12:00, , , 115.8915338, -4.3660829,
 2031-Jul-19 14:00, , , 116.8804657, -4.4096161,
 2031-Jul-19 16:00, , , 117.8697818, -4.4518263,
 2031-Jul-19 18:00, , , 118.8594970, -4.4927002,
 2031-Jul-19 20:00, , , 119.8496261, -4.5322249,
 2031-Jul-19 22:00, , , 120.8401834, -4.5703880,
 2031-Jul-20 00:00, , , 121.8311834, -4.6071772,
 2031-Jul-20 02:00, , , 122.8226403, -4.6425806,
 2031-Jul-20 04:00, , , 123.8145685, -4.6765864,
 2031-Jul-20 06:00, , , 124.8069819, -4.7091834,
 2031-Jul-20 08:00, , , 125.7998946, -4.7403606,
 2031-Jul-20 10:00, , , 126.7933206, -4.7701073,
 2031-Jul-20 12:00, , , 127.7872739, -4.7984131,
 2031-Jul-20 14:00, , , 128.7817684, -4.8252679,
 2031-Jul-20 16:00, , , 129.7768180, -4.8506621,
 2031-Jul-20 18:00, , , 130.7724368, -4.8745862,
 2031-Jul-20 20:00, , , 131.7686386, -4.8970311,
 2031-Jul-20 22:00, , , 132.7654376, -4.9179882,
 2031-Jul-21 00:00, , , 133.7628479, -4.9374490,
 2031-Jul-21 02:00, , , 134.7608836, -4.9554055,
 2031-Jul-21 04:00, , , 135.7595591, -4.9718500,
 2031-Jul-21 06:00, , , 136.7588886, -4.9867752,
 2031-Jul-21 08:00, , , 137.7588869, -5.0001739,
 2031-Jul-21 10:00, , , 138.7595684, -5.0120395,
 2031-Jul-21 12:00, , , 139.7609481, -5.0223658,
 2031-Jul-21 14:00, , , 140.7630409, -5.0311467,
 2031-Jul-21 16:00, , , 141.7658621, -5.0383767,
 2031-Jul-21 18:00, , , 142.7694270, -5.0440504,
 2031-Jul-21 20:00, , , 143.7737512, -5.0481631,
 2031-Jul-21 22:00, , , 144.7788505, -5.0507101,
 2031-Jul-22 00:00, , , 145.7847411, -5.0516872,
 2031-Jul-22 02:00, , , 146.7914392, -5.0510908,
 2031-Jul-22 04:00, , , 147.7989614, -5.0489173,
 2031-Jul-22 06:00, , , 148.8073247, -5.0451636,
 2031-Jul-22 08:00, , , 149.8165461, -5.0398270,
 2031-Jul-22 10:00, , , 150.8266432, -5.0329052,
 2031-Jul-22 12:00, , , 151.8376338, -5.0243962,
 2031-Jul-22 14:00, , , 152.8495359, -5.0142984,
 2031-Jul-22 16:00, , , 153.8623680, -5.0026106,
 2031-Jul-22 18:00, , , 154.8761489, -4.9893318,
 2031-Jul-22 20:00, , , 155.8908977, -4.9744616,
 2031-Jul-22 22:00, , , 156.9066340, -4.9579999,
 2031-Jul-23 00:00, , , 157.9233776, -4.9399470,
 2031-Jul-23 02:00, , , 158.9411487, -4.9203034,
 2031-Jul-23 04:00, , , 159.9599681, -4.8990703,
 2031-Jul-23 06:00, , , 160.9798567, -4.8762489,
 2031-Jul-23 08:00, , , 162.0008359, -4.8518412,
 2031-Jul-23 10:00, , , 163.0229276, -4.8258492,
 2031-Jul-23 12:00, , , 164.0461541, -4.7982756,
 2031-Jul-23 14:00, , , 165.0705378, -4.7691232,
 2031-Jul-23 16:00, , , 166.0961019, -4.7383954,
 2031-Jul-23 18:00, , , 167.1228698, -4.7060960,
 2031-Jul-23 20:00, , , 168.1508655, -4.6722291,
 2031-Jul-23 22:00, , , 169.1801130, -4.6367991,
 2031-Jul-24 00:00, , , 170.2106373, -4.5998111,
 2031-Jul-24 02:00, , , 171.2424633, -4.5612703,
 2031-Jul-24 04:00, , , 172.2756166, -4.5211825,
 2031-Jul-24 06:00, , , 173.3101231, -4.4795538,
 2031-Jul-24 08:00, , , 174.3460091, -4.4363908,
 2031-Jul-24 10:00, , , 175.3833013, -4.3917004,
 2031-Jul-24 12:00, , , 176.4220269, -4.3454902,
 2031-Jul-24 14:00, , , 177.4622134, -4.2977678,
 2031-Jul-24 16:00, , , 178.5038886, -4.2485415,
 2031-Jul-24 18:00, , , 179.5470807, -4.1978201,
